{
  "type": "FeatureCollection",
  "features": [
    {
      "type": "Feature",
      "properties": {
        "norad_id": 33412,
        "name": "COSMO-SKYMED 3",
        "group": "resource",
        "lat": 33.25216454345438,
        "lon": -168.39301785220653,
        "alt_km": 557.038195788853,
        "timestamp": "2025-12-12T09:49:08.384586+00:00",
        "meta_object_name": "COSMO-SKYMED 3",
        "meta_object_id": "2008-054A",
        "meta_epoch": "2025-12-12T03:17:18.638592",
        "meta_mean_motion": 15.05350511,
        "meta_eccentricity": 0.0015962,
        "meta_inclination": 97.8467,
        "meta_ra_of_asc_node": 196.5184,
        "meta_arg_of_pericenter": 175.8945,
        "meta_mean_anomaly": 184.2414,
        "meta_ephemeris_type": 0,
        "meta_classification_type": "U",
        "meta_norad_cat_id": 33412,
        "meta_element_set_no": 999,
        "meta_rev_at_epoch": 92878,
        "meta_bstar": 0.00068061,
        "meta_mean_motion_dot": 9.718e-05,
        "meta_mean_motion_ddot": 0,
        "tle_line1": "1 33412U 08054A   25346.13702128  .00009718  00000+0  68061-3 0  9992",
        "tle_line2": "2 33412  97.8467 196.5184 0015962 175.8945 184.2414 15.05350511928786"
      },
      "geometry": {
        "type": "Point",
        "coordinates": [
          -168.39301785220653,
          33.25216454345438
        ]
      }
    },
    {
      "type": "Feature",
      "properties": {
        "norad_id": 33446,
        "name": "YAOGAN-4",
        "group": "resource",
        "lat": 41.63784893142499,
        "lon": -90.59574753073638,
        "alt_km": 615.4690136567433,
        "timestamp": "2025-12-12T09:49:08.384597+00:00",
        "meta_object_name": "YAOGAN-4",
        "meta_object_id": "2008-061A",
        "meta_epoch": "2025-12-11T19:03:10.073376",
        "meta_mean_motion": 14.82677773,
        "meta_eccentricity": 0.00136364,
        "meta_inclination": 97.9179,
        "meta_ra_of_asc_node": 275.9025,
        "meta_arg_of_pericenter": 326.6885,
        "meta_mean_anomaly": 33.3469,
        "meta_ephemeris_type": 0,
        "meta_classification_type": "U",
        "meta_norad_cat_id": 33446,
        "meta_element_set_no": 999,
        "meta_rev_at_epoch": 91789,
        "meta_bstar": 0.00029431307,
        "meta_mean_motion_dot": 2.323e-05,
        "meta_mean_motion_ddot": 0,
        "tle_line1": "1 33446U 08061A   25345.79386659  .00002323  00000+0  29431-3 0  9998",
        "tle_line2": "2 33446  97.9179 275.9025 0013636 326.6885  33.3469 14.82677773917895"
      },
      "geometry": {
        "type": "Point",
        "coordinates": [
          -90.59574753073638,
          41.63784893142499
        ]
      }
    },
    {
      "type": "Feature",
      "properties": {
        "norad_id": 33492,
        "name": "GOSAT (IBUKI)",
        "group": "resource",
        "lat": 66.50828244395181,
        "lon": -65.91378671376808,
        "alt_km": 661.787410088571,
        "timestamp": "2025-12-12T09:49:08.384607+00:00",
        "meta_object_name": "GOSAT (IBUKI)",
        "meta_object_id": "2009-002A",
        "meta_epoch": "2025-12-12T04:24:03.751200",
        "meta_mean_motion": 14.67553346,
        "meta_eccentricity": 9.36e-05,
        "meta_inclination": 98.0768,
        "meta_ra_of_asc_node": 94.7943,
        "meta_arg_of_pericenter": 91.2926,
        "meta_mean_anomaly": 268.8386,
        "meta_ephemeris_type": 0,
        "meta_classification_type": "U",
        "meta_norad_cat_id": 33492,
        "meta_element_set_no": 999,
        "meta_rev_at_epoch": 90403,
        "meta_bstar": 0.00025723,
        "meta_mean_motion_dot": 1.411e-05,
        "meta_mean_motion_ddot": 0,
        "tle_line1": "1 33492U 09002A   25346.18337675  .00001411  00000+0  25723-3 0  9990",
        "tle_line2": "2 33492  98.0768  94.7943 0000936  91.2926 268.8386 14.67553346904035"
      },
      "geometry": {
        "type": "Point",
        "coordinates": [
          -65.91378671376808,
          66.50828244395181
        ]
      }
    },
    {
      "type": "Feature",
      "properties": {
        "norad_id": 35681,
        "name": "DEIMOS-1",
        "group": "resource",
        "lat": -1.2214174670027842,
        "lon": -33.13803421478635,
        "alt_km": 648.857832871975,
        "timestamp": "2025-12-12T09:49:08.384619+00:00",
        "meta_object_name": "DEIMOS-1",
        "meta_object_id": "2009-041A",
        "meta_epoch": "2025-12-12T04:06:58.405248",
        "meta_mean_motion": 14.74952034,
        "meta_eccentricity": 0.0002726,
        "meta_inclination": 97.7151,
        "meta_ra_of_asc_node": 146.8011,
        "meta_arg_of_pericenter": 80.473,
        "meta_mean_anomaly": 279.6787,
        "meta_ephemeris_type": 0,
        "meta_classification_type": "U",
        "meta_norad_cat_id": 35681,
        "meta_element_set_no": 999,
        "meta_rev_at_epoch": 87931,
        "meta_bstar": 0.00020417,
        "meta_mean_motion_dot": 1.324e-05,
        "meta_mean_motion_ddot": 0,
        "tle_line1": "1 35681U 09041A   25346.17150932  .00001324  00000+0  20417-3 0  9991",
        "tle_line2": "2 35681  97.7151 146.8011 0002726  80.4730 279.6787 14.74952034879318"
      },
      "geometry": {
        "type": "Point",
        "coordinates": [
          -33.13803421478635,
          -1.2214174670027842
        ]
      }
    },
    {
      "type": "Feature",
      "properties": {
        "norad_id": 35682,
        "name": "DUBAISAT-1",
        "group": "resource",
        "lat": 62.4666662199577,
        "lon": -47.29940320911295,
        "alt_km": 646.6845241399451,
        "timestamp": "2025-12-12T09:49:08.384630+00:00",
        "meta_object_name": "DUBAISAT-1",
        "meta_object_id": "2009-041B",
        "meta_epoch": "2025-12-11T23:31:17.778432",
        "meta_mean_motion": 14.7460116,
        "meta_eccentricity": 0.00096,
        "meta_inclination": 97.9785,
        "meta_ra_of_asc_node": 116.6709,
        "meta_arg_of_pericenter": 317.2917,
        "meta_mean_anomaly": 42.7545,
        "meta_ephemeris_type": 0,
        "meta_classification_type": "U",
        "meta_norad_cat_id": 35682,
        "meta_element_set_no": 999,
        "meta_rev_at_epoch": 87750,
        "meta_bstar": 0.00034685,
        "meta_mean_motion_dot": 2.263e-05,
        "meta_mean_motion_ddot": 0,
        "tle_line1": "1 35682U 09041B   25345.98006688  .00002263  00000+0  34685-3 0  9993",
        "tle_line2": "2 35682  97.9785 116.6709 0009600 317.2917  42.7545 14.74601160877500"
      },
      "geometry": {
        "type": "Point",
        "coordinates": [
          -47.29940320911295,
          62.4666662199577
        ]
      }
    },
    {
      "type": "Feature",
      "properties": {
        "norad_id": 35931,
        "name": "OCEANSAT-2",
        "group": "resource",
        "lat": 22.59478641997515,
        "lon": -16.406285578431525,
        "alt_km": 883.7995511079216,
        "timestamp": "2025-12-12T09:49:08.384641+00:00",
        "meta_object_name": "OCEANSAT-2",
        "meta_object_id": "2009-051A",
        "meta_epoch": "2025-12-12T04:33:48.127968",
        "meta_mean_motion": 13.99624814,
        "meta_eccentricity": 0.0016231,
        "meta_inclination": 98.2223,
        "meta_ra_of_asc_node": 346.8466,
        "meta_arg_of_pericenter": 46.5076,
        "meta_mean_anomaly": 313.7437,
        "meta_ephemeris_type": 0,
        "meta_classification_type": "U",
        "meta_norad_cat_id": 35931,
        "meta_element_set_no": 999,
        "meta_rev_at_epoch": 85317,
        "meta_bstar": -6.4318e-05,
        "meta_mean_motion_dot": -1.31e-06,
        "meta_mean_motion_ddot": 0,
        "tle_line1": "1 35931U 09051A   25346.19014037 -.00000131  00000+0 -64318-4 0  9993",
        "tle_line2": "2 35931  98.2223 346.8466 0016231  46.5076 313.7437 13.99624814853176"
      },
      "geometry": {
        "type": "Point",
        "coordinates": [
          -16.406285578431525,
          22.59478641997515
        ]
      }
    },
    {
      "type": "Feature",
      "properties": {
        "norad_id": 35946,
        "name": "WORLDVIEW-2 (WV-2)",
        "group": "resource",
        "lat": 77.63438616961278,
        "lon": -79.62536055864128,
        "alt_km": 755.4647280028776,
        "timestamp": "2025-12-12T09:49:08.384651+00:00",
        "meta_object_name": "WORLDVIEW-2 (WV-2)",
        "meta_object_id": "2009-055A",
        "meta_epoch": "2025-12-12T04:20:59.086752",
        "meta_mean_motion": 14.37723723,
        "meta_eccentricity": 0.0005144,
        "meta_inclination": 98.479,
        "meta_ra_of_asc_node": 57.2731,
        "meta_arg_of_pericenter": 72.3584,
        "meta_mean_anomaly": 287.8164,
        "meta_ephemeris_type": 0,
        "meta_classification_type": "U",
        "meta_norad_cat_id": 35946,
        "meta_element_set_no": 999,
        "meta_rev_at_epoch": 84877,
        "meta_bstar": 0.00010511,
        "meta_mean_motion_dot": 2.73e-06,
        "meta_mean_motion_ddot": 0,
        "tle_line1": "1 35946U 09055A   25346.18123943  .00000273  00000+0  10511-3 0  9999",
        "tle_line2": "2 35946  98.4790  57.2731 0005144  72.3584 287.8164 14.37723723848773"
      },
      "geometry": {
        "type": "Point",
        "coordinates": [
          -79.62536055864128,
          77.63438616961278
        ]
      }
    }
  ]
}